VIGORIDE-3              
1 52760U 22057AE  26068.92149362  .00008532  00000+0  33326-3 0  9991
2 52760  97.6431 206.4459 0009778 111.2279 249.0004 15.26101220210019
STARLINK-32513          
1 61964U 24210F   26068.33771282  .00032210  00000+0  11744-2 0  9996
2 61964  42.9998 167.3172 0001690 269.9941  90.0717 15.27593784 75021
