[{"OBJECT_NAME":"VIGORIDE-3","OBJECT_ID":"2022-057AE","EPOCH":"2026-03-09T22:06:57.048768","MEAN_MOTION":15.2610122,"ECCENTRICITY":0.00097778,"INCLINATION":97.6431,"RA_OF_ASC_NODE":206.4459,"ARG_OF_PERICENTER":111.2279,"MEAN_ANOMALY":249.0004,"EPHEMERIS_TYPE":0,"CLASSIFICATION_TYPE":"U","NORAD_CAT_ID":52760,"ELEMENT_SET_NO":999,"REV_AT_EPOCH":21001,"BSTAR":0.00033325795,"MEAN_MOTION_DOT":8.532e-5,"MEAN_MOTION_DDOT":0},{"OBJECT_NAME":"STARLINK-32513","OBJECT_ID":"2024-210F","EPOCH":"2026-03-09T08:06:18.387648","MEAN_MOTION":15.27593784,"ECCENTRICITY":0.00016904,"INCLINATION":42.9998,"RA_OF_ASC_NODE":167.3172,"ARG_OF_PERICENTER":269.9941,"MEAN_ANOMALY":90.0717,"EPHEMERIS_TYPE":0,"CLASSIFICATION_TYPE":"U","NORAD_CAT_ID":61964,"ELEMENT_SET_NO":999,"REV_AT_EPOCH":7502,"BSTAR":0.0011744084,"MEAN_MOTION_DOT":0.0003221,"MEAN_MOTION_DDOT":0}]
